     3.02           N: GNSS NAV DATA    C: BEIDOU           RINEX VERSION / TYPE
Spider v7.4.1.8151  SMO                 20200729 000830 UTC PGM / RUN BY / DATE
BDSA   6.5193D-09  0.0000D+00 -1.7881D-07  2.9802D-07       IONOSPHERIC CORR
BDSB   5.9392D+04  8.0282D+05 -3.0147D+06  2.0316D+06       IONOSPHERIC CORR
BDUT -1.8626451492D-09 9.769962617D-15 258785  760          TIME SYSTEM CORR
     4     4   573     6                                    LEAP SECONDS
                                                            END OF HEADER
C19 2020 07 28 06 00 00 4.894493613392D-04 1.343369859796D-11 0.000000000000D+00
     1.000000000000D+00-2.060937500000D+01 4.087313154599D-09 1.903441841604D+00
    -1.064036041498D-06 8.460088865831D-04 6.179325282574D-06 5.282612503052D+03
     1.944000000000D+05 1.164153218269D-08-2.954925933440D+00 1.210719347000D-08
     9.642515141574D-01 2.392343750000D+02-1.058135730183D+00-6.920645390096D-09
     1.803646537679D-10                    7.600000000000D+02                   
     2.000000000000D+00 0.000000000000D+00 1.230000012953D-08 1.230000012953D-08
     1.944000000000D+05 1.000000000000D+00                                      
C22 2020 07 28 06 00 00-7.684106240049D-04 3.248956659263D-12 0.000000000000D+00
     1.000000000000D+00-2.153125000000D+01 4.052668867160D-09 2.227474528626D-01
    -9.806826710701D-07 6.851885700598D-04 6.163027137518D-06 5.282613059998D+03
     1.944000000000D+05 2.747401595116D-08-2.952528174135D+00 1.862645149231D-08
     9.635422592884D-01 2.371562500000D+02-1.669715023247D-01-6.930288787288D-09
     2.082229527689D-10                    7.600000000000D+02                   
     2.000000000000D+00 0.000000000000D+00 1.609999955576D-08 1.609999955576D-08
     1.944000000000D+05 1.000000000000D+00                                      
C09 2020 07 28 06 00 00 7.056862814352D-04 2.516031827327D-11-1.355252715607D-19
     6.000000000000D+00-2.185625000000D+02 1.446845976361D-09 1.418904611827D+00
    -6.769318133593D-06 7.260251324624D-03 1.641456037760D-05 6.493112125397D+03
     1.944000000000D+05 1.243315637112D-07-2.079344136961D+00-1.834705471992D-07
     9.498744555924D-01-2.742812500000D+02-2.356969670002D+00-2.116159469878D-09
    -6.532415164351D-10                    7.600000000000D+02                   
     2.000000000000D+00 0.000000000000D+00 7.200000151641D-09 3.500000067547D-09
     1.944000000000D+05 5.000000000000D+00                                      
C07 2020 07 28 06 00 00 1.246490282938D-04-3.199485121286D-11 0.000000000000D+00
     1.000000000000D+00 4.773906250000D+02 1.865434917647D-09 4.665707744312D-02
     1.551490277052D-05 8.065904490650D-03-1.510605216026D-06 6.492817161560D+03
     1.944000000000D+05-2.034939825535D-07-1.095155688487D-01-2.267770469189D-07
     8.977912979598D-01 2.470312500000D+02-2.585831887832D+00-2.886906047550D-09
     4.428755973063D-11                    7.600000000000D+02                   
     2.000000000000D+00 0.000000000000D+00 1.480000033638D-08 8.000000106811D-10
     1.944000000000D+05 0.000000000000D+00                                      
C10 2020 07 28 06 00 00-2.255687722936D-04 9.497291841853D-12 0.000000000000D+00
     1.000000000000D+00 4.303906250000D+02 1.869720822611D-09-3.311331998383D-01
     1.385575160384D-05 6.957836449146D-03-4.256144165993D-07 6.493114740372D+03
     1.944000000000D+05-3.105960786343D-07-1.165720683117D-01-1.066364347935D-07
     8.994297237839D-01 2.192656250000D+02-2.566708199916D+00-2.771901153054D-09
     3.071556550771D-11                    7.600000000000D+02                   
     2.000000000000D+00 0.000000000000D+00 6.500000093723D-09 2.800000009628D-09
     1.944000000000D+05 0.000000000000D+00                                      
C16 2020 07 28 06 00 00-5.949018523097D-04 3.755218358492D-12 0.000000000000D+00
     1.000000000000D+00-1.867656250000D+02 1.506134217344D-09 1.972738973411D+00
    -5.709473043680D-06 2.850665361620D-03 1.645879819989D-05 6.493770345688D+03
     1.944000000000D+05 9.872019290924D-08-2.133911905882D+00-1.541338860989D-07
     9.603333470186D-01-2.710156250000D+02-2.569321180803D+00-2.084372452416D-09
    -6.075253078386D-10                    7.600000000000D+02                   
     2.000000000000D+00 0.000000000000D+00-2.900000017902D-09 4.199999903420D-09
     1.944000000000D+05 0.000000000000D+00                                      
C29 2020 07 28 06 00 00 2.619964070618D-04 5.126565838509D-12 0.000000000000D+00
     1.000000000000D+00-9.746875000000D+01 3.679796245493D-09 1.262609653880D+00
    -4.928093403578D-06 3.030096413568D-04 7.108785212040D-06 5.282622554779D+03
     1.944000000000D+05 6.426125764847D-08 1.219399227524D+00 7.450580596924D-09
     9.651768303234D-01 2.212812500000D+02 1.672355684007D+00-6.970290122865D-09
    -3.203704801447D-10                    7.600000000000D+02                   
     2.000000000000D+00 0.000000000000D+00 1.000000013351D-10 1.000000013351D-10
     1.944000000000D+05 1.000000000000D+00                                      
C08 2020 07 28 06 00 00-4.054225282744D-04-2.677325028344D-11 0.000000000000D+00
     1.000000000000D+00-3.209843750000D+02 3.982308649508D-10-1.887782131577D+00
    -1.033116132021D-05 4.938110359944D-03 2.054590731859D-05 6.492955017090D+03
     1.944000000000D+05-2.142041921616D-08 2.043279120377D+00 4.656612873077D-10
     1.035273043095D+00-3.562968750000D+02-2.794964396617D+00-1.657211923245D-09
     4.646622253635D-10                    7.600000000000D+02                   
     2.000000000000D+00 0.000000000000D+00 1.130000004679D-08-8.000000106811D-10
     1.944000000000D+05 0.000000000000D+00                                      
C06 2020 07 28 06 00 00 7.968269055709D-04 1.343991584690D-11 0.000000000000D+00
     5.000000000000D+00-1.992968750000D+02 1.592923459803D-09 1.654004819140D+00
    -6.049405783415D-06 9.610382374376D-03 1.685880124569D-05 6.493949590683D+03
     1.944000000000D+05 2.421438694000D-08-2.121410649154D+00-1.434236764908D-07
     9.449210720298D-01-2.845468750000D+02-2.193766179441D+00-2.174019186896D-09
    -6.321692058719D-10                    7.600000000000D+02                   
     2.000000000000D+00 0.000000000000D+00 8.699999831663D-09-1.800000037910D-09
     1.944000000000D+05 0.000000000000D+00                                      
C13 2020 07 28 06 00 00 5.659800954163D-04 1.970690277631D-11 0.000000000000D+00
     1.000000000000D+00-3.143437500000D+02 6.700279220340D-10-2.312834623828D+00
    -9.926501661539D-06 3.929701400921D-03 1.723878085613D-05 6.493021982193D+03
     1.944000000000D+05-4.190951585770D-08 2.024016030998D+00 8.661299943924D-08
     9.963108811016D-01-2.675937500000D+02-2.756612066655D+00-1.740786848003D-09
     4.364467398599D-10                    7.600000000000D+02                   
     2.000000000000D+00 0.000000000000D+00-9.299999881307D-09 2.499999984806D-09
     1.944000000000D+05 0.000000000000D+00                                      
C20 2020 07 28 06 00 00-8.368722628802D-04 1.547206807118D-12 0.000000000000D+00
     1.000000000000D+00-2.015625000000D+01 4.060526137550D-09 2.226469291783D+00
    -1.170206815004D-06 8.227919461206D-04 6.293412297964D-06 5.282617929459D+03
     1.944000000000D+05 7.916241884232D-09-2.954306620238D+00 8.381903171539D-09
     9.642495553101D-01 2.332343750000D+02-6.157540033687D-01-6.940289232205D-09
     1.639354069161D-10                    7.600000000000D+02                   
     2.000000000000D+00 0.000000000000D+00 2.310000013495D-08 2.310000013495D-08
     1.944000000000D+05 1.000000000000D+00                                      
C02 2020 07 28 06 00 00 1.860485645011D-04-2.591615810843D-11 0.000000000000D+00
     1.000000000000D+00-3.696562500000D+02 6.438482635929D-09 2.109175238289D+00
    -1.202244311571D-05 6.870795041323D-04 6.842426955700D-06 6.493318828583D+03
     1.944000000000D+05-6.938353180885D-08-1.743951251758D+00-1.527369022369D-07
     7.453795829087D-02-2.016718750000D+02 2.707850212899D+00-5.379152678842D-09
    -3.793015068698D-10                    7.600000000000D+02                   
     2.000000000000D+00 0.000000000000D+00 1.600000021362D-09-1.400000027019D-08
     1.944004000000D+05 0.000000000000D+00                                      
C03 2020 07 28 06 00 00 8.167593041435D-04-8.756551039824D-12 0.000000000000D+00
     1.000000000000D+00-4.843593750000D+02 6.150613351963D-09 1.255762963202D+00
    -1.562060788274D-05 8.171178633347D-04 9.182374924421D-06 6.493451601028D+03
     1.944000000000D+05-3.818422555923D-08-1.744066161048D+00-3.217719495296D-07
     6.443186126279D-02-2.734843750000D+02-2.256508196235D+00-5.285577309166D-09
    -3.685867722147D-10                    7.600000000000D+02                   
     2.000000000000D+00 0.000000000000D+00 2.299999968258D-09-8.099999782019D-09
     1.944004000000D+05 0.000000000000D+00                                      
C01 2020 07 28 06 00 00-2.855518832803D-04 3.519229352378D-11 0.000000000000D+00
     1.000000000000D+00-1.124531250000D+02 4.163387856693D-09-4.268761454478D-01
    -3.582797944546D-06 6.805794546381D-04 1.903437077999D-05 6.493473489761D+03
     1.944000000000D+05-5.541369318962D-08-1.361750403742D+00-1.620501279831D-07
     9.045764641549D-02-5.856718750000D+02-3.613145647162D-01-3.260492986712D-09
    -4.364467398599D-10                    7.600000000000D+02                   
     2.000000000000D+00 0.000000000000D+00-4.999999969613D-09-1.019999995577D-08
     1.944004000000D+05 0.000000000000D+00                                      
